     3.04           N: GNSS NAV DATA    R: GLONASS          RINEX VERSION / TYPE
CHC Navigation      CHC Navigation      20230628 133752 UTC PGM / RUN BY / DATE 
    18                                                      LEAP SECONDS        
                                                            END OF HEADER       
R 9 2023 06 20 01 15 00 1.267734915018E-04 2.728484105319E-12 4.920000000000E+03
     8.201698730469E+03-1.619666099548E+00-1.862645149231E-09 0.000000000000E+00
     8.177188964844E+03 2.650800704956E+00-9.313225746155E-10-2.000000000000E+00
     2.274302734375E+04-3.768930435181E-01-1.862645149231E-09 0.000000000000E+00
R16 2023 06 20 01 15 00 1.582317054272E-05 0.000000000000E+00 4.920000000000E+03
    -5.210959960938E+03-9.157714843750E-01-2.793967723846E-09 0.000000000000E+00
     2.061699462891E+04 1.700073242188E+00-1.862645149231E-09-1.000000000000E+00
     1.407255468750E+04-2.835711479187E+00 0.000000000000E+00 0.000000000000E+00
R15 2023 06 20 01 15 00 8.847005665302E-05 0.000000000000E+00 4.920000000000E+03
    -1.490643505859E+04 3.402347564697E-01-1.862645149231E-09 0.000000000000E+00
     2.048451513672E+04-2.591972351074E-01-1.862645149231E-09 0.000000000000E+00
    -2.914263671875E+03-3.534549713135E+00 1.862645149231E-09 0.000000000000E+00
R17 2023 06 20 01 15 00 6.405692547560E-04 2.728484105319E-12 4.920000000000E+03
    -1.289538818359E+04-1.395667076111E+00-4.656612873077E-09 0.000000000000E+00
    -3.723366210938E+03-2.626142501831E+00 0.000000000000E+00 4.000000000000E+00
     2.168262792969E+04-1.284731864929E+00 0.000000000000E+00 0.000000000000E+00
R 3 2023 06 20 01 15 00 8.000619709492E-05 9.094947017729E-13 5.010000000000E+03
    -2.523841259766E+04-5.389833450317E-01-3.725290298462E-09 0.000000000000E+00
     4.070136718750E+02 1.461820602417E-01 0.000000000000E+00 5.000000000000E+00
    -3.825588378906E+03 3.522344589233E+00 3.725290298462E-09 0.000000000000E+00
R 2 2023 06 20 01 15 00-2.268142998219E-05 0.000000000000E+00 4.920000000000E+03
    -2.057729882813E+04 1.779968261719E+00-4.656612873077E-09 0.000000000000E+00
    -7.501311523438E+03 2.719907760620E-01 9.313225746155E-10-4.000000000000E+00
     1.317472216797E+04 2.939430236816E+00 1.862645149231E-09 0.000000000000E+00
R 2 2023 06 20 01 45 00-2.268049865961E-05 0.000000000000E+00 5.400000000000E+03
    -1.674713330078E+04 2.440596580505E+00-4.656612873077E-09 0.000000000000E+00
    -7.266708496094E+03-4.164314270020E-02 1.862645149231E-09-4.000000000000E+00
     1.789151416016E+04 2.267667770386E+00 9.313225746155E-10 0.000000000000E+00
R18 2023 06 20 01 45 00 8.747261017561E-05 1.818989403546E-12 5.400000000000E+03
    -7.464715332031E+03-1.734613418579E+00-4.656612873077E-09 0.000000000000E+00
     7.623140136719E+03-2.660362243652E+00 0.000000000000E+00-3.000000000000E+00
     2.317440966797E+04 3.207788467407E-01 0.000000000000E+00 0.000000000000E+00
R 9 2023 06 20 01 45 00 1.267772167921E-04 1.818989403546E-12 5.400000000000E+03
     5.698350585938E+03-1.147452354431E+00-1.862645149231E-09 0.000000000000E+00
     1.300009228516E+04 2.660061836243E+00-9.313225746155E-10-2.000000000000E+00
     2.119532861328E+04-1.331870079041E+00-9.313225746155E-10 0.000000000000E+00
R16 2023 06 20 01 45 00 1.582317054272E-05 0.000000000000E+00 5.400000000000E+03
    -6.326525878906E+03-3.428335189819E-01-2.793967723846E-09 0.000000000000E+00
     2.319207470703E+04 1.121360778809E+00-1.862645149231E-09-1.000000000000E+00
     8.489610839844E+03-3.327285766602E+00 9.313225746155E-10 0.000000000000E+00
R15 2023 06 20 01 45 00 8.846912533045E-05-9.094947017729E-13 5.400000000000E+03
    -1.397393847656E+04 6.551046371460E-01-9.313225746155E-10 0.000000000000E+00
     1.929491552734E+04-1.069785118103E+00-9.313225746155E-10 0.000000000000E+00
    -9.081347167969E+03-3.273187637329E+00 2.793967723846E-09 0.000000000000E+00
R19 2023 06 20 01 45 00-2.368874847889E-04-9.094947017729E-13 5.400000000000E+03
     2.920044433594E+03-1.069963455200E+00-2.793967723846E-09 0.000000000000E+00
     1.892481640625E+04-2.057532310486E+00-9.313225746155E-10 3.000000000000E+00
     1.684773486328E+04 2.494854927063E+00-9.313225746155E-10 0.000000000000E+00
R17 2023 06 20 01 45 00 6.405757740140E-04 2.728484105319E-12 5.400000000000E+03
    -1.556783496094E+04-1.532732009888E+00-3.725290298462E-09 0.000000000000E+00
    -7.946806640625E+03-2.036748886108E+00 1.862645149231E-09 4.000000000000E+00
     1.856102197266E+04-2.161277770996E+00 9.313225746155E-10 0.000000000000E+00
R 3 2023 06 20 01 45 00 8.000805974007E-05 9.094947017729E-13 5.400000000000E+03
    -2.540147900391E+04 3.586730957031E-01-3.725290298462E-09 0.000000000000E+00
     7.116855468750E+02 1.512441635132E-01 9.313225746155E-10 5.000000000000E+00
     2.580447265625E+03 3.549390792847E+00 2.793967723846E-09 0.000000000000E+00
R20 2023 06 20 01 45 00-9.506382048130E-05-9.094947017729E-13 5.730000000000E+03
     1.429044628906E+04 3.996429443359E-01 9.313225746155E-10 0.000000000000E+00
     2.094571142578E+04 1.709766387939E-01-1.862645149231E-09 2.000000000000E+00
    -2.587888671875E+03 3.592861175537E+00-9.313225746155E-10 0.000000000000E+00
R 4 2023 06 20 01 45 00 1.918962225318E-04 9.094947017729E-13 7.020000000000E+03
    -1.990833105469E+04-1.890889167786E+00-9.313225746155E-10 0.000000000000E+00
     7.826872558594E+03 2.847528457642E-01 0.000000000000E+00 6.000000000000E+00
    -1.387150781250E+04 2.867128372192E+00 2.793967723846E-09 0.000000000000E+00
R18 2023 06 20 02 15 00 8.747633546591E-05 1.818989403546E-12 7.200000000000E+03
    -1.093550341797E+04-2.088004112244E+00-4.656612873077E-09 0.000000000000E+00
     3.092625488281E+03-2.332571983337E+00 9.313225746155E-10-3.000000000000E+00
     2.284937646484E+04-6.794500350952E-01 0.000000000000E+00 0.000000000000E+00
R 9 2023 06 20 02 15 00 1.267809420824E-04 1.818989403546E-12 7.200000000000E+03
     4.090803710938E+03-6.420974731445E-01-2.793967723846E-09 0.000000000000E+00
     1.757780029297E+04 2.378170013428E+00-9.313225746155E-10-2.000000000000E+00
     1.800934960938E+04-2.185339927673E+00 0.000000000000E+00 0.000000000000E+00
R16 2023 06 20 02 15 00 1.582410186529E-05 0.000000000000E+00 7.200000000000E+03
    -6.540648925781E+03 7.201004028320E-02-2.793967723846E-09 0.000000000000E+00
     2.453369482422E+04 3.434572219849E-01-9.313225746155E-10-1.000000000000E+00
     2.249202636719E+03-3.561408042908E+00 9.313225746155E-10 0.000000000000E+00
R15 2023 06 20 02 15 00 8.846819400787E-05-9.094947017729E-13 7.200000000000E+03
    -1.269992626953E+04 7.183933258057E-01 0.000000000000E+00 0.000000000000E+00
     1.664204882813E+04-1.865732192993E+00-9.313225746155E-10 0.000000000000E+00
    -1.454514355469E+04-2.758169174194E+00 2.793967723846E-09 0.000000000000E+00
R19 2023 06 20 02 15 00-2.368902787566E-04-9.094947017729E-13 7.200000000000E+03
     4.196464843750E+02-1.703296661377E+00-3.725290298462E-09 0.000000000000E+00
     1.498974755859E+04-2.264853477478E+00 0.000000000000E+00 3.000000000000E+00
     2.062890087891E+04 1.679132461548E+00 0.000000000000E+00 0.000000000000E+00
R 3 2023 06 20 02 15 00 8.000992238522E-05 9.094947017729E-13 7.200000000000E+03
    -2.397933691406E+04 1.203057289124E+00-4.656612873077E-09 0.000000000000E+00
     8.071582031250E+02-8.275032043457E-02 1.862645149231E-09 5.000000000000E+00
     8.787836425781E+03 3.303167343140E+00 1.862645149231E-09 0.000000000000E+00
R 4 2023 06 20 02 15 00 1.918980851769E-04 1.818989403546E-12 7.200000000000E+03
    -2.259589746094E+04-1.075120925903E+00-1.862645149231E-09 0.000000000000E+00
     8.480900878906E+03 4.025049209595E-01 0.000000000000E+00 6.000000000000E+00
    -8.240487792969E+03 3.348823547363E+00 3.725290298462E-09 0.000000000000E+00
R 2 2023 06 20 02 15 00-2.267863601446E-05 0.000000000000E+00 7.350000000000E+03
    -1.194075292969E+04 2.853163719177E+00-2.793967723846E-09 0.000000000000E+00
    -7.735280761719E+03-4.944810867310E-01 1.862645149231E-09-4.000000000000E+00
     2.123356201172E+04 1.421738624573E+00 0.000000000000E+00 0.000000000000E+00
R20 2023 06 20 02 15 00-9.506568312645E-05-9.094947017729E-13 7.200000000000E+03
     1.454938525391E+04-1.459684371948E-01 0.000000000000E+00 0.000000000000E+00
     2.056191992188E+04-5.712919235229E-01-1.862645149231E-09 2.000000000000E+00
     3.895792480469E+03 3.564329147339E+00-9.313225746155E-10 0.000000000000E+00
R18 2023 06 20 02 45 00 8.747819811106E-05 1.818989403546E-12 9.000000000000E+03
    -1.483717187500E+04-2.202071189880E+00-3.725290298462E-09 0.000000000000E+00
    -6.517524414063E+02-1.801838874817E+00 2.793967723846E-09-3.000000000000E+00
     2.076037451172E+04-1.626516342163E+00 0.000000000000E+00 0.000000000000E+00
R 9 2023 06 20 02 45 00 1.267790794373E-04 1.818989403546E-12 9.000000000000E+03
     3.343690917969E+03-2.080650329590E-01-2.793967723846E-09 0.000000000000E+00
     2.139886865234E+04 1.826657295227E+00-9.313225746155E-10-2.000000000000E+00
     1.342914990234E+04-2.870831489563E+00 0.000000000000E+00 0.000000000000E+00
R16 2023 06 20 02 45 00 1.582410186529E-05 0.000000000000E+00 9.000000000000E+03
    -6.201963867188E+03 2.638158798218E-01-1.862645149231E-09 0.000000000000E+00
     2.436727294922E+04-5.359153747559E-01-9.313225746155E-10-1.000000000000E+00
    -4.165460449219E+03-3.519595146179E+00 1.862645149231E-09 0.000000000000E+00
R15 2023 06 20 02 45 00 8.846726268530E-05-9.094947017729E-13 9.000000000000E+03
    -1.153064404297E+04 5.449104309082E-01 0.000000000000E+00 0.000000000000E+00
     1.265524316406E+04-2.533993721008E+00 0.000000000000E+00 0.000000000000E+00
    -1.888208691406E+04-2.029267311096E+00 2.793967723846E-09 0.000000000000E+00
R20 2023 06 20 02 45 00-9.506661444902E-05-9.094947017729E-13 9.000000000000E+03
     1.366797509766E+04-8.521718978882E-01-9.313225746155E-10 0.000000000000E+00
     1.900987744141E+04-1.113411903381E+00-1.862645149231E-09 2.000000000000E+00
     1.007752539063E+04 3.259568214417E+00-9.313225746155E-10 0.000000000000E+00
R19 2023 06 20 02 45 00-2.368921414018E-04-9.094947017729E-13 9.000000000000E+03
    -3.159269531250E+03-2.249385833740E+00-3.725290298462E-09 0.000000000000E+00
     1.094809814453E+04-2.179176330566E+00 9.313225746155E-10 3.000000000000E+00
     2.281442041016E+04 7.334289550781E-01 0.000000000000E+00 0.000000000000E+00
R 3 2023 06 20 02 45 00 8.001271635294E-05 9.094947017729E-13 9.000000000000E+03
    -2.116774414063E+04 1.886205673218E+00-3.725290298462E-09 0.000000000000E+00
     2.950507812500E+02-5.133790969849E-01 2.793967723846E-09 5.000000000000E+00
     1.431919042969E+04 2.803156852722E+00 1.862645149231E-09 0.000000000000E+00
R 4 2023 06 20 02 45 00 1.919008791447E-04 1.818989403546E-12 9.000000000000E+03
    -2.374093017578E+04-1.965541839600E-01-2.793967723846E-09 0.000000000000E+00
     9.126289550781E+03 2.724590301514E-01 1.862645149231E-09 6.000000000000E+00
    -1.971792968750E+03 3.571119308472E+00 3.725290298462E-09 0.000000000000E+00
R 2 2023 06 20 02 45 00-2.267770469189E-05 0.000000000000E+00 9.090000000000E+03
    -6.654426269531E+03 2.969455718994E+00-1.862645149231E-09 0.000000000000E+00
    -9.070998535156E+03-9.872646331787E-01 1.862645149231E-09-4.000000000000E+00
     2.294384521484E+04 4.662103652954E-01-9.313225746155E-10 0.000000000000E+00
R10 2023 06 20 02 45 00-9.429268538952E-05 0.000000000000E+00 9.720000000000E+03
     9.426378417969E+03-4.696121215820E-01-1.862645149231E-09 0.000000000000E+00
     8.248200683594E+03 3.006144523621E+00 0.000000000000E+00-7.000000000000E+00
     2.222897167969E+04-9.094686508179E-01-1.862645149231E-09 0.000000000000E+00
R 5 2023 06 20 02 45 00 1.144586130977E-04 9.094947017729E-13 1.032000000000E+04
    -1.354542285156E+04-2.192827224731E+00 0.000000000000E+00 0.000000000000E+00
     1.306223925781E+04 8.849925994873E-01 0.000000000000E+00 1.000000000000E+00
    -1.721842968750E+04 2.392552375793E+00 2.793967723846E-09 0.000000000000E+00
